STARLINK-37054          
1 68082U 26042P   26087.91668981  .00132413  00000+0  66641-3 0  9998
2 68082  53.1568  98.3041 0001317  59.8541   5.7475 15.80799449  5147
STARLINK-37065          
1 68083U 26042Q   26086.48016872  .00365638  00000+0  22573-2 0  9998
2 68083  53.1585 105.8417 0001294 183.6169 176.4842 15.75546988  4891
STARLINK-37037          
1 68084U 26042R   26087.73093135  .00241618  00000+0  15320-2 0  9998
2 68084  53.1591  99.4146 0001320 116.1185 243.9971 15.75295062  5095
STARLINK-37068          
1 68085U 26042S   26087.91668981  .00096911  00000+0  63036-3 0  9998
2 68085  53.1590  98.3348 0001353  81.1792 328.3278 15.75194318  5144
STARLINK-37067          
1 68086U 26042T   26087.52286386  .00230517  00000+0  11339-2 0  9991
2 68086  53.1582 100.2420 0001345 132.7786 227.3351 15.80999185  5069
STARLINK-37062          
1 68087U 26042U   26087.52210499  .00367155  00000+0  17712-2 0  9994
2 68087  53.1586 100.2374 0000937 139.8452 220.2641 15.81050491  5069
STARLINK-37059          
1 68088U 26042V   26087.91668981  .00028009  00000+0  18653-3 0  9999
2 68088  53.1591  98.2781 0001232  75.5194   1.6160 15.75207954  5149
STARLINK-37004          
1 68089U 26042W   26087.91668981  .00091333  00000+0  59514-3 0  9991
2 68089  53.1588  98.3305 0001374 103.5874 307.8075 15.75177543  5149
STARLINK-36320          
1 68090U 26042X   26086.15385821  .00375248  00000+0  23254-2 0  9998
2 68090  53.1593 107.3571 0002763 139.4736 220.6491 15.75432358  4849
STARLINK-36324          
1 68091U 26042Y   26086.66668981 -.00080651  00000+0 -52598-3 0  9993
2 68091  53.1590 104.8665 0001015  79.2879 283.0326 15.75281960  4932
STARLINK-36896          
1 68092U 26042Z   26087.54511535  .00234211  00000+0  14800-2 0  9998
2 68092  53.1599 100.3901 0004420 174.1508 185.9565 15.75388113  5050
STARLINK-36251          
1 68093U 26042AA  26087.51685987  .00363408  00000+0  17584-2 0  9992
2 68093  53.1589 100.2023 0000697 325.6743  34.4234 15.80994283  5058
